CCSDS_OMM_VERS,COMMENT,CREATION_DATE,ORIGINATOR,OBJECT_NAME,OBJECT_ID,CENTER_NAME,REF_FRAME,TIME_SYSTEM,MEAN_ELEMENT_THEORY,EPOCH,MEAN_MOTION,ECCENTRICITY,INCLINATION,RA_OF_ASC_NODE,ARG_OF_PERICENTER,MEAN_ANOMALY,EPHEMERIS_TYPE,CLASSIFICATION_TYPE,NORAD_CAT_ID,ELEMENT_SET_NO,REV_AT_EPOCH,BSTAR,MEAN_MOTION_DOT,MEAN_MOTION_DDOT,SEMIMAJOR_AXIS,PERIOD,APOAPSIS,PERIAPSIS,OBJECT_TYPE,RCS_SIZE,COUNTRY_CODE,LAUNCH_DATE,SITE,DECAY_DATE,FILE,GP_ID,TLE_LINE0,TLE_LINE1,TLE_LINE2
"3.0","GENERATED VIA SPACE-TRACK.ORG API","2026-03-18T04:49:44","18 SPCS","CZ-2C DEB","2004-046E","EARTH","TEME","UTC","SGP4","2026-03-17T22:29:52.368288","14.77458312","0.00619654","98.2753","208.7750","163.4474","322.3640","0","U","28483","999","12325","0.00137250250000","0.00010048","0.0000000000000","7015.496","97.465","680.832","593.889","DEBRIS","SMALL","PRC","2004-11-18","XSC","","5089495","316262057","0 CZ-2C DEB","1 28483U 04046E   26076.93741167  .00010048  00000-0  13725-2 0  9991","2 28483  98.2753 208.7750 0061965 163.4474 322.3640 14.77458312123251"
"3.0","GENERATED VIA SPACE-TRACK.ORG API","2026-03-17T17:21:16","18 SPCS","SL-8 DEB","2002-054D","EARTH","TEME","UTC","SGP4","2026-03-17T14:23:23.877024","14.76498468","0.00283239","98.2769","309.0835","123.7706","236.6207","0","U","27768","999","24180","0.00034190962000","0.00002342","0.0000000000000","7018.536","97.528","660.280","620.521","DEBRIS","SMALL","CIS","2002-11-28","PKMTR","","5088782","316213074","0 SL-8 DEB","1 27768U 02054D   26076.59958191  .00002342  00000-0  34191-3 0  9991","2 27768  98.2769 309.0835 0028324 123.7706 236.6207 14.76498468241804"
"3.0","GENERATED VIA SPACE-TRACK.ORG API","2026-03-14T17:28:19","18 SPCS","CZ-4 DEB","1990-081CY","EARTH","TEME","UTC","SGP4","2026-03-14T09:09:06.100704","14.54663954","0.00307150","98.2774","115.1155","90.7731","284.5520","0","U","37612","999","67013","0.00083878585000","0.00003564","0.0000000000000","7088.593","98.992","732.231","688.686","DEBRIS","SMALL","PRC","1990-09-03","TSC","","5087093","315953894","0 CZ-4 DEB","1 37612U 90081CY  26073.38132061  .00003564  00000-0  83879-3 0  9995","2 37612  98.2774 115.1155 0030715  90.7731 284.5520 14.54663954670130"
"3.0","GENERATED VIA SPACE-TRACK.ORG API","2015-05-26T01:37:06","18 SPCS","FENGYUN 1C DEB","1999-025CZU","EARTH","TEME","UTC","SGP4","2015-05-25T04:00:34.784928","14.71292071","0.00033790","98.2781","119.6018","286.8460","73.2375","0","U","32408","999","41515","0.00140670000000","0.00008645","0.0000000000000","7035.083","97.873","659.325","654.571","DEBRIS","SMALL","PRC","1999-05-10","TSC","","1876825","99252122","0 FENGYUN 1C DEB","1 32408U 99025CZU 15145.16706927  .00008645  00000-0  14067-2 0  9999","2 32408 098.2781 119.6018 0003379 286.8460 073.2375 14.71292071415153"
